FLOCK 4H-34             
1 66737U 25276BZ  26199.77016163  .00003453  00000+0  15947-3 0  9992
2 66737  97.4223 273.1296 0002921 160.6814 199.4533 15.20865744 34483
FLOCK 4H-35             
1 66738U 25276CA  26199.67984763  .00003544  00000+0  16302-3 0  9999
2 66738  97.4181 272.9774 0002875 145.0733 215.0692 15.20979570 34518
FLOCK 4H-36             
1 66739U 25276CB  26199.78472734  .00003409  00000+0  15801-3 0  9995
2 66739  97.4230 273.1367 0002823 172.0461 188.0820 15.20745704 35238
