{"fetched_at":"2026-07-19T07:04:50.778Z","source":"https://celestrak.org/NORAD/elements/gp.php?GROUP=planet&FORMAT=JSON","constellation":"superdove","records":[{"OBJECT_NAME":"FLOCK 4H-34","OBJECT_ID":"2025-276BZ","EPOCH":"2026-07-18T18:29:01.963968","CLASSIFICATION_TYPE":"U","MEAN_MOTION":15.20865744,"ECCENTRICITY":0.0002922,"INCLINATION":97.4223,"RA_OF_ASC_NODE":273.1296,"ARG_OF_PERICENTER":160.6814,"MEAN_ANOMALY":199.4533,"EPHEMERIS_TYPE":0,"NORAD_CAT_ID":66737,"ELEMENT_SET_NO":999,"REV_AT_EPOCH":3448,"BSTAR":0.00015947,"MEAN_MOTION_DOT":0.00003453,"MEAN_MOTION_DDOT":0},{"OBJECT_NAME":"FLOCK 4H-35","OBJECT_ID":"2025-276CA","EPOCH":"2026-07-18T16:18:58.835232","CLASSIFICATION_TYPE":"U","MEAN_MOTION":15.2097957,"ECCENTRICITY":0.0002875,"INCLINATION":97.4181,"RA_OF_ASC_NODE":272.9774,"ARG_OF_PERICENTER":145.0733,"MEAN_ANOMALY":215.0692,"EPHEMERIS_TYPE":0,"NORAD_CAT_ID":66738,"ELEMENT_SET_NO":999,"REV_AT_EPOCH":3451,"BSTAR":0.00016302,"MEAN_MOTION_DOT":0.00003544,"MEAN_MOTION_DDOT":0},{"OBJECT_NAME":"FLOCK 4H-36","OBJECT_ID":"2025-276CB","EPOCH":"2026-07-18T18:50:00.442176","CLASSIFICATION_TYPE":"U","MEAN_MOTION":15.20745704,"ECCENTRICITY":0.0002824,"INCLINATION":97.423,"RA_OF_ASC_NODE":273.1367,"ARG_OF_PERICENTER":172.0461,"MEAN_ANOMALY":188.082,"EPHEMERIS_TYPE":0,"NORAD_CAT_ID":66739,"ELEMENT_SET_NO":999,"REV_AT_EPOCH":3523,"BSTAR":0.00015801,"MEAN_MOTION_DOT":0.00003409,"MEAN_MOTION_DDOT":0}]}
